IRIDIUM 7               
1 24793U 97020B   24195.58145736  .00000697  00000+0  23673-3 0  9998
2 24793  86.3978 318.7772 0002253  99.5041 260.6410 14.35288944423313
IRIDIUM 5               
1 24795U 97020D   24195.57508783  .00003676  00000+0  34751-3 0  9993
2 24795  86.3907 239.0139 0118415 268.4491  90.3168 14.88159279434993
IRIDIUM 4               
1 24796U 97020E   24195.57129157  .00000722  00000+0  24076-3 0  9996
2 24796  86.3974 315.8827 0002068  97.1629 262.9803 14.36216201423859
IRIDIUM 914             
1 24836U 97030A   24195.60068037  .00000832  00000+0  25772-3 0  9991
2 24836  86.3959 325.4738 0000637 140.0605 220.0641 14.40083046558383
IRIDIUM 16              
1 24841U 97030F   24195.47612598  .00000807  00000+0  26058-3 0  9999
2 24841  86.4054 347.5684 0004268  94.8273 265.3412 14.37970851418571
IRIDIUM 911             
1 24842U 97030G   24195.45354774  .00001059  00000+0  28766-3 0  9995
2 24842  86.4479 346.6809 0015622 140.5768 219.6574 14.46629442426090
IRIDIUM 17              
1 24870U 97034B   24195.60108181  .00000723  00000+0  23713-3 0  9990
2 24870  86.3961  17.0958 0003446  69.1905 290.9661 14.37061801414949
IRIDIUM 920             
1 24871U 97034C   24195.54168467  .00000778  00000+0  23680-3 0  9990
2 24871  86.3990 357.1429 0013496 115.0162 245.2440 14.40780140417809
